STARLINK-4574           
1 53733U 22107AK  26068.71149263  .00000480  00000+0  48242-4 0  9993
2 53733  53.2165 254.2530 0001331  83.4785 276.6359 15.08842756194580
LEMUR-2-KREMPEL-BRO2    
1 63353U 25061C   26068.86379735  .00007837  00000+0  44347-3 0  9993
2 63353  97.5616  45.5365 0017925 236.8576 123.0936 15.13192951 52586
